STARLINK-1320
1 15572C 20025AT  21326.16479596  .00004864  00000-0  32583-3 0  3263
2 15572  53.0538 278.0131 0002093  65.0904 161.4043 15.06402563    11
